BEIDOU 3 (C01)          
1 36287U 10001A   21227.44793963 -.00000288  00000-0  00000-0 0  9996
2 36287   1.9639  48.5123 0005669  88.9818 128.2091  1.00267672 42445
BEIDOU 5 (C06)          
1 36828U 10036A   21227.29382481 -.00000106  00000-0  00000-0 0  9996
2 36828  54.1846 179.0594 0023068 183.4583 173.4557  1.00286170 40509
BEIDOU 6 (C04)          
1 37210U 10057A   21227.62618796 -.00000118  00000-0  00000-0 0  9996
2 37210   0.9366  53.3218 0005799 127.8929 168.5108  1.00271719 39569
BEIDOU 7 (C07)          
1 37256U 10068A   21227.23623688 -.00000162  00000-0  00000+0 0  9999
2 37256  50.7643 293.2947 0053115 221.3543   8.6331  0.99710246 39079
BEIDOU 8 (C08)          
1 37384U 11013A   21227.43923716 -.00000181  00000-0  00000-0 0  9991
2 37384  59.8550  57.3052 0054564 206.6939 336.5646  1.00289724 37950
BEIDOU 9 (C09)          
1 37763U 11038A   21227.25486417 -.00000043  00000-0  00000-0 0  9998
2 37763  54.4702 181.4987 0084395 226.9498  99.3329  1.00253764 36920
BEIDOU 10 (C10)         
1 37948U 11073A   21227.44445890 -.00000151  00000-0  00000-0 0  9993
2 37948  50.8618 292.9221 0078137 216.0952  71.2242  1.00280321 35686
BEIDOU 11 (C05)         
1 38091U 12008A   21227.57122512  .00000051  00000-0  00000-0 0  9997
2 38091   1.6755  69.3411 0005927 340.4136 178.7745  1.00269301 34766
BEIDOU 12 (C11)         
1 38250U 12018A   21226.99973169 -.00000079  00000-0  00000-0 0  9993
2 38250  56.7517   3.6807 0021013 244.1345  62.6916  1.86234492 63373
BEIDOU 13 (C12)         
1 38251U 12018B   21227.49321141 -.00000082  00000-0  00000-0 0  9991
2 38251  56.6741   3.0098 0012241 243.0877  78.9620  1.86234260 63385
BEIDOU 15 (C14)         
1 38775U 12050B   21227.18520625 -.00000023  00000-0  00000-0 0  9997
2 38775  55.2340 122.0040 0014437 323.9659 348.9886  1.86232265 60755
BEIDOU 16 (C02)         
1 38953U 12059A   21227.57628480 -.00000183  00000-0  00000-0 0  9992
2 38953   1.2360  83.8351 0010872 296.9517 234.9759  1.00273109 32330
BEIDOU 17 (C31)         
1 40549U 15019A   21226.71685528 -.00000166  00000-0  00000-0 0  9997
2 40549  52.3997 316.3193 0040447 189.9870 167.6693  1.00254108 23358
BEIDOU 18 (C57)         
1 40748U 15037A   21227.51367858 -.00000084  00000-0  00000-0 0  9999
2 40748  55.9329   2.0598 0003266  52.9971 192.5974  1.86233624 41212
BEIDOU 19 (C58)         
1 40749U 15037B   21227.55011928 -.00000084  00000-0  00000-0 0  9998
2 40749  55.9379   2.0483 0002135 328.3782  77.4908  1.86232289 41219
BEIDOU 20 (C18)         
1 40938U 15053A   21227.44246353 -.00000116  00000-0  00000-0 0  9992
2 40938  51.9724 279.3868 0048224 195.0074 105.3679  1.00269445 21637
BEIDOU IGSO-6 (C13)     
1 41434U 16021A   21227.50605988 -.00000135  00000-0  00000-0 0  9991
2 41434  57.6401  56.0201 0038719 210.7262 333.4169  1.00258022 19765
BEIDOU-2 G7 (C03)       
1 41586U 16037A   21227.58035654 -.00000361  00000-0  00000-0 0  9992
2 41586   1.8220  68.3743 0008829  15.4334 199.7518  1.00277122 19076
BEIDOU-3 M1 (C19)       
1 43001U 17069A   21227.45907292 -.00000026  00000-0  00000-0 0  9992
2 43001  55.3882 121.9542 0009847 295.4868 357.0260  1.86231932 25695
BEIDOU-3 M2 (C20)       
1 43002U 17069B   21227.39043854 -.00000025  00000-0  00000-0 0  9990
2 43002  55.3880 121.9929 0008802 317.7601 332.1257  1.86231503 25689
BEIDOU-3 M3 (C27)       
1 43107U 18003A   21227.21680810 -.00000083  00000-0  00000-0 0  9999
2 43107  55.3780   3.1239 0005071  63.5470 275.8339  1.86232671 24448
BEIDOU-3 M4 (C28)       
1 43108U 18003B   21227.14917037 -.00000082  00000-0  00000-0 0  9995
2 43108  55.3723   3.1147 0002622 221.2337 117.9759  1.86232672 24441
BEIDOU-3 M5 (C21)       
1 43207U 18018A   21226.55353458 -.00000015  00000-0  00000-0 0  9992
2 43207  55.3473 122.1095 0006594 340.8301  19.2024  1.86231794 23822
BEIDOU-3 M6 (C22)       
1 43208U 18018B   21226.62024212 -.00000016  00000-0  00000-0 0  9995
2 43208  55.3469 122.1117 0008134 308.3690  51.6150  1.86231674 23822
BEIDOU-3 M7 (C29)       
1 43245U 18029A   21227.17411799 -.00000084  00000-0  00000-0 0  9994
2 43245  55.3066   0.9137 0001121 123.8232  97.1657  1.86232813 22981
BEIDOU-3 M8 (C30)       
1 43246U 18029B   21227.29268888 -.00000085  00000-0  10000-3 0  9992
2 43246  55.3035   0.9403 0003256   6.8223 339.9023  1.86233176 22971
BEIDOU IGSO-7 (C16)     
1 43539U 18057A   21227.53347038 -.00000111  00000-0  00000-0 0  9996
2 43539  55.0640 178.4236 0038945 223.4489 224.9117  1.00250889 11447
BEIDOU-3 M9 (C23)       
1 43581U 18062A   21227.60155944  .00000088  00000-0  00000-0 0  9992
2 43581  54.3802 242.5674 0006253 266.6751 137.3465  1.86231938 20736
BEIDOU-3 M10 (C24)      
1 43582U 18062B   21227.54569428  .00000088  00000-0  00000-0 0  9992
2 43582  54.3800 242.5589 0004774 325.9715 131.9855  1.86232249 20734
BEIDOU-3 M11 (C25)      
1 43602U 18067A   21227.41299133  .00000089  00000-0  00000-0 0  9990
2 43602  54.4573 241.1517 0006532 349.8549  61.2521  1.86231704 20229
BEIDOU-3 M12 (C26)      
1 43603U 18067B   21227.31502383  .00000088  00000-0  00000-0 0  9993
2 43603  54.4539 241.1212 0004127 330.6577 285.2167  1.86231650 20236
BEIDOU-3 M13 (C32)      
1 43622U 18072A   21227.32251150 -.00000024  00000-0  00000-0 0  9995
2 43622  55.3123 121.6483 0006386 293.0626 357.8688  1.86232028 19742
BEIDOU-3 M14 (C33)      
1 43623U 18072B   21227.54389745 -.00000027  00000-0  00000-0 0  9995
2 43623  55.3140 121.6324 0005104 322.0813 207.5157  1.86232046 19757
BEIDOU-3 M15 (C34)      
1 43647U 18078A   21226.46062493 -.00000080  00000-0  10000-3 0  9998
2 43647  55.1996   1.1220 0005637   7.1937  51.3410  1.86232952 19243
BEIDOU-3 M16 (C35)      
1 43648U 18078B   21227.37474252 -.00000085  00000-0  00000-0 0  9991
2 43648  55.1969   1.0993 0003921  25.6787 194.0883  1.86232459 19276
BEIDOU-3 G1 (C59)       
1 43683U 18085A   21227.45175664 -.00000284  00000-0  00000-0 0  9993
2 43683   0.9749 219.6785 0003627  15.4116  31.5829  1.00274758 10349
BEIDOU-3 M17 (C36)      
1 43706U 18093A   21227.20028887  .00000086  00000-0  00000-0 0  9994
2 43706  54.4620 242.4433 0011838 269.3702  90.5324  1.86231621 18636
BEIDOU-3 M18 (C37)      
1 43707U 18093B   21226.84939029  .00000084  00000-0  00000-0 0  9991
2 43707  54.4616 242.4470 0009803 287.7503 287.7964  1.86232172 18615
BEIDOU-3 IGSO-1 (C38)   
1 44204U 19023A   21227.43871375 -.00000203  00000-0  00000-0 0  9997
2 44204  56.1043  56.2729 0019677 187.9580 351.8457  1.00277922  8645
BEIDOU-2 G8             
1 44231U 19027A   21227.59771569 -.00000253  00000-0  00000-0 0  9997
2 44231   0.2633  18.8283 0006342 176.9140 128.2060  1.00273070  8358
BEIDOU-3 IGSO-2 (C39)   
1 44337U 19035A   21227.53067409 -.00000125  00000-0  00000-0 0  9996
2 44337  55.1008 174.4670 0020104 184.9087 272.9202  1.00294470  7980
BEIDOU-3 M23 (C45)      
1 44542U 19061A   21226.49962684  .00000082  00000-0  10000-3 0  9991
2 44542  54.6872 242.5494 0008857 315.2290 338.6525  1.86231441 12862
BEIDOU-3 M24 (C46)      
1 44543U 19061B   21227.54156491  .00000088  00000-0  10000-3 0  9996
2 44543  54.6846 242.4844 0006780 299.7543 243.6330  1.86231777 12885
BEIDOU-3 IGSO-3         
1 44709U 19073A   21225.35242249 -.00000159  00000-0  00000+0 0  9992
2 44709  57.7560 299.5765 0021554 202.4466  52.4735  1.00261222  6716
BEIDOU-3 M21            
1 44793U 19078A   21227.45672328 -.00000086  00000-0  10000-3 0  9992
2 44793  55.0476   1.1478 0005401  15.4739 305.2613  1.86232547 11747
BEIDOU-3 M22            
1 44794U 19078B   21227.62445020 -.00000087  00000-0  00000-0 0  9996
2 44794  55.0230   1.1398 0003762  17.1769 327.1095  1.86233033 11745
BEIDOU-3 M19            
1 44864U 19090A   21227.24956367 -.00000024  00000-0  00000-0 0  9998
2 44864  55.2473 121.8791 0015964 269.4954  18.0387  1.86232072 11322
BEIDOU-3 M20            
1 44865U 19090B   21227.41500059 -.00000025  00000-0  00000-0 0  9992
2 44865  55.2497 121.9033 0014699 284.8740 203.4906  1.86232040 11307
BEIDOU-3 G2             
1 45344U 20017A   21227.36012411 -.00000144  00000-0  00000-0 0  9992
2 45344   2.3555 338.3763 0003983 149.8179  45.4566  1.00270991  5551
BEIDOU-3 G3             
1 45807U 20040A   21227.58151895 -.00000358  00000-0  00000-0 0  9993
2 45807   2.1494 298.6681 0007103 340.5298   4.8560  1.00268330  4367
